STARLINK-32377          
1 61888U 24204Q   26068.45592980 -.00000694  00000+0 -11329-4 0  9997
2 61888  53.1601 128.0286 0000700  64.3390 295.7684 15.30191472 75059
KUIPER-00222            
1 67782U 26030U   26068.67636257  .00055223  00000+0  17317-2 0  9992
2 67782  51.8817 219.7147 0012800  40.1845 320.0084 15.32445377  5087
